start=new Date('2022-02-02T00:00:00.000Z').valueOf();
sats=[{"SITE":"AFETR","PERIAPSIS":"545.923","SEMIMAJOR_AXIS":"6925.359","MEAN_ANOMALY":"305.6059","OBJECT_NAME":"STARLINK-2540","REF_FRAME":"TEME","MEAN_MOTION_DOT":"0.00001115","PERIOD":"95.592","MEAN_MOTION_DDOT":"0.0000000000000","ARG_OF_PERICENTER":"54.5105","FILE":"3289675","COUNTRY_CODE":"US","DECAY_DATE":null,"TLE_LINE2":"2 48290  53.0560 321.4919 0001878  54.5105 305.6059 15.06396644 42690","OBJECT_ID":"2021-036Q","CLASSIFICATION_TYPE":"U","EPHEMERIS_TYPE":"0","OBJECT_TYPE":"PAYLOAD","ECCENTRICITY":"0.00018780","MEAN_ELEMENT_THEORY":"SGP4","REV_AT_EPOCH":"4269","BSTAR":"0.00009374900000","GP_ID":"195124016","RA_OF_ASC_NODE":"321.4919","CENTER_NAME":"EARTH","ELEMENT_SET_NO":"999","APOAPSIS":"548.524","TIME_SYSTEM":"UTC","RCS_SIZE":"LARGE","MEAN_MOTION":"15.06396644","INCLINATION":"53.0560","EPOCH":"2022-02-01T18:52:32.035296","NORAD_CAT_ID":"48290","TLE_LINE1":"1 48290U 21036Q   22032.78648189  .00001115  00000-0  93749-4 0  9999","LAUNCH_DATE":"2021-04-29"},{"LAUNCH_DATE":"2021-04-29","TLE_LINE1":"1 48291U 21036R   22032.78279130  .00003734  00000-0  26939-3 0  9991","INCLINATION":"53.0558","NORAD_CAT_ID":"48291","EPOCH":"2022-02-01T18:47:13.168320","ELEMENT_SET_NO":"999","GP_ID":"195122273","CENTER_NAME":"EARTH","RA_OF_ASC_NODE":"321.5012","MEAN_MOTION":"15.06404916","RCS_SIZE":"LARGE","APOAPSIS":"548.362","TIME_SYSTEM":"UTC","BSTAR":"0.00026939000000","REV_AT_EPOCH":"4269","OBJECT_TYPE":"PAYLOAD","ECCENTRICITY":"0.00016800","EPHEMERIS_TYPE":"0","CLASSIFICATION_TYPE":"U","MEAN_ELEMENT_THEORY":"SGP4","COUNTRY_CODE":"US","FILE":"3289675","ARG_OF_PERICENTER":"56.0563","PERIOD":"95.592","MEAN_MOTION_DDOT":"0.0000000000000","MEAN_MOTION_DOT":"0.00003734","OBJECT_ID":"2021-036R","TLE_LINE2":"2 48291  53.0558 321.5012 0001680  56.0563 304.0586 15.06404916 42699","DECAY_DATE":null,"MEAN_ANOMALY":"304.0586","SEMIMAJOR_AXIS":"6925.333","REF_FRAME":"TEME","OBJECT_NAME":"STARLINK-2555","PERIAPSIS":"546.035","SITE":"AFETR"},{"TLE_LINE1":"1 48292U 21036S   22032.51277441 -.00001111  00000-0 -55726-4 0  9992","LAUNCH_DATE":"2021-04-29","EPOCH":"2022-02-01T12:18:23.709024","NORAD_CAT_ID":"48292","INCLINATION":"53.0558","TIME_SYSTEM":"UTC","APOAPSIS":"548.460","MEAN_MOTION":"15.06397158","RCS_SIZE":"LARGE","RA_OF_ASC_NODE":"322.7106","GP_ID":"195092175","CENTER_NAME":"EARTH","ELEMENT_SET_NO":"999","REV_AT_EPOCH":"4265","BSTAR":"-0.00005572600000","MEAN_ELEMENT_THEORY":"SGP4","CLASSIFICATION_TYPE":"U","EPHEMERIS_TYPE":"0","OBJECT_TYPE":"PAYLOAD","ECCENTRICITY":"0.00017870","DECAY_DATE":null,"TLE_LINE2":"2 48292  53.0558 322.7106 0001787  63.9659 296.1514 15.06397158 42655","OBJECT_ID":"2021-036S","MEAN_MOTION_DDOT":"0.0000000000000","PERIOD":"95.592","MEAN_MOTION_DOT":"-0.00001111","ARG_OF_PERICENTER":"63.9659","FILE":"3289399","COUNTRY_CODE":"US","OBJECT_NAME":"STARLINK-2542","REF_FRAME":"TEME","SEMIMAJOR_AXIS":"6925.357","MEAN_ANOMALY":"296.1514","SITE":"AFETR","PERIAPSIS":"545.985"},{"BSTAR":"0.00011728000000","REV_AT_EPOCH":"4323","ELEMENT_SET_NO":"999","RA_OF_ASC_NODE":"322.7194","GP_ID":"195095709","CENTER_NAME":"EARTH","RCS_SIZE":"LARGE","MEAN_MOTION":"15.06403745","APOAPSIS":"548.325","TIME_SYSTEM":"UTC","INCLINATION":"53.0562","NORAD_CAT_ID":"48293","EPOCH":"2022-02-01T12:14:26.622240","LAUNCH_DATE":"2021-04-29","TLE_LINE1":"1 48293U 21036T   22032.51003035  .00001466  00000-0  11728-3 0  9993","PERIAPSIS":"546.079","SITE":"AFETR","MEAN_ANOMALY":"298.2706","SEMIMAJOR_AXIS":"6925.337","REF_FRAME":"TEME","OBJECT_NAME":"STARLINK-2550","FILE":"3289427","COUNTRY_CODE":"US","MEAN_MOTION_DDOT":"0.0000000000000","PERIOD":"95.592","ARG_OF_PERICENTER":"61.8446","MEAN_MOTION_DOT":"0.00001466","OBJECT_ID":"2021-036T","DECAY_DATE":null,"TLE_LINE2":"2 48293  53.0562 322.7194 0001622  61.8446 298.2706 15.06403745 43238","ECCENTRICITY":"0.00016220","OBJECT_TYPE":"PAYLOAD","CLASSIFICATION_TYPE":"U","EPHEMERIS_TYPE":"0","MEAN_ELEMENT_THEORY":"SGP4"},{"REF_FRAME":"TEME","OBJECT_NAME":"STARLINK-2533","MEAN_ANOMALY":"308.4546","SEMIMAJOR_AXIS":"6925.342","PERIAPSIS":"545.920","SITE":"AFETR","MEAN_ELEMENT_THEORY":"SGP4","OBJECT_TYPE":"PAYLOAD","ECCENTRICITY":"0.00018590","EPHEMERIS_TYPE":"0","CLASSIFICATION_TYPE":"U","OBJECT_ID":"2021-036U","TLE_LINE2":"2 48294  53.0554 321.5566 0001859  51.6610 308.4546 15.06402108 42699","DECAY_DATE":null,"COUNTRY_CODE":"US","FILE":"3289675","ARG_OF_PERICENTER":"51.6610","PERIOD":"95.592","MEAN_MOTION_DDOT":"0.0000000000000","MEAN_MOTION_DOT":"0.00001292","RCS_SIZE":"LARGE","MEAN_MOTION":"15.06402108","APOAPSIS":"548.495","TIME_SYSTEM":"UTC","ELEMENT_SET_NO":"999","GP_ID":"195123517","RA_OF_ASC_NODE":"321.5566","CENTER_NAME":"EARTH","BSTAR":"0.00010564000000","REV_AT_EPOCH":"4269","LAUNCH_DATE":"2021-04-29","TLE_LINE1":"1 48294U 21036U   22032.77173137  .00001292  00000-0  10564-3 0  9997","NORAD_CAT_ID":"48294","EPOCH":"2022-02-01T18:31:17.590368","INCLINATION":"53.0554"},{"MEAN_MOTION":"15.06404862","RCS_SIZE":"LARGE","TIME_SYSTEM":"UTC","APOAPSIS":"548.296","ELEMENT_SET_NO":"999","GP_ID":"195091936","RA_OF_ASC_NODE":"322.7487","CENTER_NAME":"EARTH","BSTAR":"0.00004495800000","REV_AT_EPOCH":"4265","LAUNCH_DATE":"2021-04-29","TLE_LINE1":"1 48295U 21036V   22032.50265018  .00000388  00000-0  44958-4 0  9999","NORAD_CAT_ID":"48295","EPOCH":"2022-02-01T12:03:48.975552","INCLINATION":"53.0536","REF_FRAME":"TEME","OBJECT_NAME":"STARLINK-2535","MEAN_ANOMALY":"294.2905","SEMIMAJOR_AXIS":"6925.334","PERIAPSIS":"546.102","SITE":"AFETR","MEAN_ELEMENT_THEORY":"SGP4","OBJECT_TYPE":"PAYLOAD","ECCENTRICITY":"0.00015840","CLASSIFICATION_TYPE":"U","EPHEMERIS_TYPE":"0","OBJECT_ID":"2021-036V","DECAY_DATE":null,"TLE_LINE2":"2 48295  53.0536 322.7487 0001584  65.8249 294.2905 15.06404862 42651","FILE":"3289399","COUNTRY_CODE":"US","MEAN_MOTION_DOT":"0.00000388","PERIOD":"95.592","MEAN_MOTION_DDOT":"0.0000000000000","ARG_OF_PERICENTER":"65.8249"},{"OBJECT_NAME":"STARLINK-2546","REF_FRAME":"TEME","SEMIMAJOR_AXIS":"6925.347","MEAN_ANOMALY":"295.9459","SITE":"AFETR","PERIAPSIS":"546.074","MEAN_ELEMENT_THEORY":"SGP4","CLASSIFICATION_TYPE":"U","EPHEMERIS_TYPE":"0","ECCENTRICITY":"0.00016430","OBJECT_TYPE":"PAYLOAD","DECAY_DATE":null,"TLE_LINE2":"2 48296  53.0547 321.2841 0001643  64.1699 295.9459 15.06400527 42701","OBJECT_ID":"2021-036W","PERIOD":"95.592","MEAN_MOTION_DDOT":"0.0000000000000","MEAN_MOTION_DOT":"0.00003781","ARG_OF_PERICENTER":"64.1699","FILE":"3289675","COUNTRY_CODE":"US","TIME_SYSTEM":"UTC","APOAPSIS":"548.350","MEAN_MOTION":"15.06400527","RCS_SIZE":"LARGE","RA_OF_ASC_NODE":"321.2841","GP_ID":"195123023","CENTER_NAME":"EARTH","ELEMENT_SET_NO":"999","REV_AT_EPOCH":"4270","BSTAR":"0.00027258000000","TLE_LINE1":"1 48296U 21036W   22032.83070500  .00003781  00000-0  27258-3 0  9999","LAUNCH_DATE":"2021-04-29","EPOCH":"2022-02-01T19:56:12.912000","NORAD_CAT_ID":"48296","INCLINATION":"53.0547"},{"MEAN_ANOMALY":"306.2243","SEMIMAJOR_AXIS":"6925.366","REF_FRAME":"TEME","OBJECT_NAME":"STARLINK-2544","PERIAPSIS":"546.058","SITE":"AFETR","ECCENTRICITY":"0.00016940","OBJECT_TYPE":"PAYLOAD","EPHEMERIS_TYPE":"0","CLASSIFICATION_TYPE":"U","MEAN_ELEMENT_THEORY":"SGP4","FILE":"3289675","COUNTRY_CODE":"US","PERIOD":"95.593","ARG_OF_PERICENTER":"53.8902","MEAN_MOTION_DDOT":"0.0000000000000","MEAN_MOTION_DOT":"0.00001919","OBJECT_ID":"2021-036X","DECAY_DATE":null,"TLE_LINE2":"2 48297  53.0551 321.2988 0001694  53.8902 306.2243 15.06394221 42707","ELEMENT_SET_NO":"999","CENTER_NAME":"EARTH","GP_ID":"195123275","RA_OF_ASC_NODE":"321.2988","RCS_SIZE":"LARGE","MEAN_MOTION":"15.06394221","APOAPSIS":"548.404","TIME_SYSTEM":"UTC","BSTAR":"0.00014773000000","REV_AT_EPOCH":"4270","LAUNCH_DATE":"2021-04-29","TLE_LINE1":"1 48297U 21036X   22032.82702267  .00001919  00000-0  14773-3 0  9990","INCLINATION":"53.0551","NORAD_CAT_ID":"48297","EPOCH":"2022-02-01T19:50:54.758688"},{"EPOCH":"2022-02-01T11:47:54.624480","NORAD_CAT_ID":"48298","INCLINATION":"53.0557","TLE_LINE1":"1 48298U 21036Y   22032.49160445  .00000847  00000-0  75745-4 0  9996","LAUNCH_DATE":"2021-04-29","REV_AT_EPOCH":"4323","BSTAR":"0.00007574500000","APOAPSIS":"548.409","TIME_SYSTEM":"UTC","RCS_SIZE":"LARGE","MEAN_MOTION":"15.06401173","CENTER_NAME":"EARTH","GP_ID":"195096625","RA_OF_ASC_NODE":"322.8066","ELEMENT_SET_NO":"999","TLE_LINE2":"2 48298  53.0557 322.8066 0001731  67.5556 292.5616 15.06401173 43232","DECAY_DATE":null,"OBJECT_ID":"2021-036Y","PERIOD":"95.592","MEAN_MOTION_DDOT":"0.0000000000000","MEAN_MOTION_DOT":"0.00000847","ARG_OF_PERICENTER":"67.5556","COUNTRY_CODE":"US","FILE":"3289440","MEAN_ELEMENT_THEORY":"SGP4","EPHEMERIS_TYPE":"0","CLASSIFICATION_TYPE":"U","OBJECT_TYPE":"PAYLOAD","ECCENTRICITY":"0.00017310","SITE":"AFETR","PERIAPSIS":"546.011","OBJECT_NAME":"STARLINK-2559","REF_FRAME":"TEME","SEMIMAJOR_AXIS":"6925.345","MEAN_ANOMALY":"292.5616"},{"FILE":"3289675","COUNTRY_CODE":"US","MEAN_MOTION_DDOT":"0.0000000000000","PERIOD":"95.592","MEAN_MOTION_DOT":"-0.00003534","ARG_OF_PERICENTER":"51.0796","OBJECT_ID":"2021-036Z","DECAY_DATE":null,"TLE_LINE2":"2 48299  53.0538 321.6385 0001734  51.0796 309.0347 15.06397757 42696","OBJECT_TYPE":"PAYLOAD","ECCENTRICITY":"0.00017340","CLASSIFICATION_TYPE":"U","EPHEMERIS_TYPE":"0","MEAN_ELEMENT_THEORY":"SGP4","PERIAPSIS":"546.020","SITE":"AFETR","MEAN_ANOMALY":"309.0347","SEMIMAJOR_AXIS":"6925.355","REF_FRAME":"TEME","OBJECT_NAME":"STARLINK-2557","INCLINATION":"53.0538","NORAD_CAT_ID":"48299","EPOCH":"2022-02-01T18:04:44.841792","LAUNCH_DATE":"2021-04-29","TLE_LINE1":"1 48299U 21036Z   22032.75329678 -.00003534  00000-0 -21849-3 0  9994","BSTAR":"-0.00021849000000","REV_AT_EPOCH":"4269","ELEMENT_SET_NO":"999","RA_OF_ASC_NODE":"321.6385","GP_ID":"195122274","CENTER_NAME":"EARTH","MEAN_MOTION":"15.06397757","RCS_SIZE":"LARGE","APOAPSIS":"548.421","TIME_SYSTEM":"UTC"}];
